[
  {
    "COMMENT": "GENERATED VIA SPACETRACK.ORG API",
    "ORIGINATOR": "18 SPCS",
    "NORAD_CAT_ID": "48621",
    "OBJECT_NAME": "HAIYANG 2D",
    "OBJECT_TYPE": "PAYLOAD",
    "CLASSIFICATION_TYPE": "U",
    "INTLDES": "21043A",
    "EPOCH": "2023-09-18 13:31:44",
    "EPOCH_MICROSECONDS": "586336",
    "MEAN_MOTION": "13.83373772",
    "ECCENTRICITY": "0.0007577",
    "INCLINATION": "65.9961",
    "RA_OF_ASC_NODE": "280.8869",
    "ARG_OF_PERICENTER": "268.7205",
    "MEAN_ANOMALY": "91.2995",
    "EPHEMERIS_TYPE": "0",
    "ELEMENT_SET_NO": "999",
    "REV_AT_EPOCH": "11786",
    "BSTAR": "0.000061438",
    "MEAN_MOTION_DOT": "-0.00000014",
    "MEAN_MOTION_DDOT": "0",
    "FILE": "4009863",
    "TLE_LINE0": "0 HAIYANG 2D",
    "TLE_LINE1": "1 48621U 21043A   23261.56371049 -.00000014  00000-0  61438-4 0  9992",
    "TLE_LINE2": "2 48621  65.9961 280.8869 0007577 268.7205  91.2995 13.83373772117868",
    "OBJECT_ID": "2021-043A",
    "OBJECT_NUMBER": "48621",
    "SEMIMAJOR_AXIS": "7330.082",
    "PERIOD": "104.093",
    "APOGEE": "957.501",
    "PERIGEE": "946.393",
    "DECAYED": "0"
  },
  {
    "COMMENT": "GENERATED VIA SPACETRACK.ORG API",
    "ORIGINATOR": "18 SPCS",
    "NORAD_CAT_ID": "48621",
    "OBJECT_NAME": "HAIYANG 2D",
    "OBJECT_TYPE": "PAYLOAD",
    "CLASSIFICATION_TYPE": "U",
    "INTLDES": "21043A",
    "EPOCH": "2023-09-18 16:59:57",
    "EPOCH_MICROSECONDS": "121728",
    "MEAN_MOTION": "13.83373792",
    "ECCENTRICITY": "0.0007577",
    "INCLINATION": "65.9961",
    "RA_OF_ASC_NODE": "280.5269",
    "ARG_OF_PERICENTER": "268.7714",
    "MEAN_ANOMALY": "91.2487",
    "EPHEMERIS_TYPE": "0",
    "ELEMENT_SET_NO": "999",
    "REV_AT_EPOCH": "11792",
    "BSTAR": "0.00005845",
    "MEAN_MOTION_DOT": "-0.00000017",
    "MEAN_MOTION_DDOT": "0",
    "FILE": "4010092",
    "TLE_LINE0": "0 HAIYANG 2D",
    "TLE_LINE1": "1 48621U 21043A   23261.70830002 -.00000017  00000-0  58450-4 0  9990",
    "TLE_LINE2": "2 48621  65.9961 280.5269 0007577 268.7714  91.2487 13.83373792117929",
    "OBJECT_ID": "2021-043A",
    "OBJECT_NUMBER": "48621",
    "SEMIMAJOR_AXIS": "7330.082",
    "PERIOD": "104.093",
    "APOGEE": "957.501",
    "PERIGEE": "946.393",
    "DECAYED": "0"
  },
  {
    "COMMENT": "GENERATED VIA SPACETRACK.ORG API",
    "ORIGINATOR": "18 SPCS",
    "NORAD_CAT_ID": "48621",
    "OBJECT_NAME": "HAIYANG 2D",
    "OBJECT_TYPE": "PAYLOAD",
    "CLASSIFICATION_TYPE": "U",
    "INTLDES": "21043A",
    "EPOCH": "2023-09-18 20:28:09",
    "EPOCH_MICROSECONDS": "657984",
    "MEAN_MOTION": "13.83373826",
    "ECCENTRICITY": "0.0007576",
    "INCLINATION": "65.9961",
    "RA_OF_ASC_NODE": "280.1669",
    "ARG_OF_PERICENTER": "268.739",
    "MEAN_ANOMALY": "91.281",
    "EPHEMERIS_TYPE": "0",
    "ELEMENT_SET_NO": "999",
    "REV_AT_EPOCH": "11790",
    "BSTAR": "0.000061463",
    "MEAN_MOTION_DOT": "-0.00000014",
    "MEAN_MOTION_DDOT": "0",
    "FILE": "4010122",
    "TLE_LINE0": "0 HAIYANG 2D",
    "TLE_LINE1": "1 48621U 21043A   23261.85288956 -.00000014  00000-0  61463-4 0  9996",
    "TLE_LINE2": "2 48621  65.9961 280.1669 0007576 268.7390  91.2810 13.83373826117904",
    "OBJECT_ID": "2021-043A",
    "OBJECT_NUMBER": "48621",
    "SEMIMAJOR_AXIS": "7330.082",
    "PERIOD": "104.093",
    "APOGEE": "957.500",
    "PERIGEE": "946.393",
    "DECAYED": "0"
  },
  {
    "COMMENT": "GENERATED VIA SPACETRACK.ORG API",
    "ORIGINATOR": "18 SPCS",
    "NORAD_CAT_ID": "48621",
    "OBJECT_NAME": "HAIYANG 2D",
    "OBJECT_TYPE": "PAYLOAD",
    "CLASSIFICATION_TYPE": "U",
    "INTLDES": "21043A",
    "EPOCH": "2023-09-19 01:40:28",
    "EPOCH_MICROSECONDS": "459776",
    "MEAN_MOTION": "13.83373879",
    "ECCENTRICITY": "0.0007576",
    "INCLINATION": "65.996",
    "RA_OF_ASC_NODE": "279.6269",
    "ARG_OF_PERICENTER": "268.7464",
    "MEAN_ANOMALY": "91.2736",
    "EPHEMERIS_TYPE": "0",
    "ELEMENT_SET_NO": "999",
    "REV_AT_EPOCH": "11797",
    "BSTAR": "0.00006334",
    "MEAN_MOTION_DOT": "-0.00000012",
    "MEAN_MOTION_DDOT": "0",
    "FILE": "4010432",
    "TLE_LINE0": "0 HAIYANG 2D",
    "TLE_LINE1": "1 48621U 21043A   23262.06977384 -.00000012  00000-0  63340-4 0  9994",
    "TLE_LINE2": "2 48621  65.9960 279.6269 0007576 268.7464  91.2736 13.83373879117976",
    "OBJECT_ID": "2021-043A",
    "OBJECT_NUMBER": "48621",
    "SEMIMAJOR_AXIS": "7330.081",
    "PERIOD": "104.093",
    "APOGEE": "957.500",
    "PERIGEE": "946.393",
    "DECAYED": "0"
  },
  {
    "COMMENT": "GENERATED VIA SPACETRACK.ORG API",
    "ORIGINATOR": "18 SPCS",
    "NORAD_CAT_ID": "48621",
    "OBJECT_NAME": "HAIYANG 2D",
    "OBJECT_TYPE": "PAYLOAD",
    "CLASSIFICATION_TYPE": "U",
    "INTLDES": "21043A",
    "EPOCH": "2023-09-19 10:20:59",
    "EPOCH_MICROSECONDS": "798688",
    "MEAN_MOTION": "13.8337393",
    "ECCENTRICITY": "0.0007577",
    "INCLINATION": "65.996",
    "RA_OF_ASC_NODE": "278.7269",
    "ARG_OF_PERICENTER": "268.8443",
    "MEAN_ANOMALY": "91.1757",
    "EPHEMERIS_TYPE": "0",
    "ELEMENT_SET_NO": "999",
    "REV_AT_EPOCH": "11802",
    "BSTAR": "0.000066286",
    "MEAN_MOTION_DOT": "-0.00000008",
    "MEAN_MOTION_DDOT": "0",
    "FILE": "4010757",
    "TLE_LINE0": "0 HAIYANG 2D",
    "TLE_LINE1": "1 48621U 21043A   23262.43124767 -.00000008  00000-0  66286-4 0  9991",
    "TLE_LINE2": "2 48621  65.9960 278.7269 0007577 268.8443  91.1757 13.83373930118022",
    "OBJECT_ID": "2021-043A",
    "OBJECT_NUMBER": "48621",
    "SEMIMAJOR_AXIS": "7330.081",
    "PERIOD": "104.093",
    "APOGEE": "957.500",
    "PERIGEE": "946.392",
    "DECAYED": "0"
  },
  {
    "COMMENT": "GENERATED VIA SPACETRACK.ORG API",
    "ORIGINATOR": "18 SPCS",
    "NORAD_CAT_ID": "48621",
    "OBJECT_NAME": "HAIYANG 2D",
    "OBJECT_TYPE": "PAYLOAD",
    "CLASSIFICATION_TYPE": "U",
    "INTLDES": "21043A",
    "EPOCH": "2023-09-19 15:33:18",
    "EPOCH_MICROSECONDS": "599616",
    "MEAN_MOTION": "13.83373971",
    "ECCENTRICITY": "0.0007578",
    "INCLINATION": "65.996",
    "RA_OF_ASC_NODE": "278.1869",
    "ARG_OF_PERICENTER": "268.8828",
    "MEAN_ANOMALY": "91.1372",
    "EPHEMERIS_TYPE": "0",
    "ELEMENT_SET_NO": "999",
    "REV_AT_EPOCH": "11805",
    "BSTAR": "0.000065055",
    "MEAN_MOTION_DOT": "-0.0000001",
    "MEAN_MOTION_DDOT": "0",
    "FILE": "4011080",
    "TLE_LINE0": "0 HAIYANG 2D",
    "TLE_LINE1": "1 48621U 21043A   23262.64813194 -.00000010  00000-0  65055-4 0  9999",
    "TLE_LINE2": "2 48621  65.9960 278.1869 0007578 268.8828  91.1372 13.83373971118051",
    "OBJECT_ID": "2021-043A",
    "OBJECT_NUMBER": "48621",
    "SEMIMAJOR_AXIS": "7330.081",
    "PERIOD": "104.093",
    "APOGEE": "957.501",
    "PERIGEE": "946.391",
    "DECAYED": "0"
  },
  {
    "COMMENT": "GENERATED VIA SPACETRACK.ORG API",
    "ORIGINATOR": "18 SPCS",
    "NORAD_CAT_ID": "48621",
    "OBJECT_NAME": "HAIYANG 2D",
    "OBJECT_TYPE": "PAYLOAD",
    "CLASSIFICATION_TYPE": "U",
    "INTLDES": "21043A",
    "EPOCH": "2023-09-20 05:26:08",
    "EPOCH_MICROSECONDS": "738592",
    "MEAN_MOTION": "13.83374078",
    "ECCENTRICITY": "0.0007579",
    "INCLINATION": "65.9959",
    "RA_OF_ASC_NODE": "276.7469",
    "ARG_OF_PERICENTER": "268.9391",
    "MEAN_ANOMALY": "91.0809",
    "EPHEMERIS_TYPE": "0",
    "ELEMENT_SET_NO": "999",
    "REV_AT_EPOCH": "11813",
    "BSTAR": "0.000070451",
    "MEAN_MOTION_DOT": "-0.00000004",
    "MEAN_MOTION_DDOT": "0",
    "FILE": "4011406",
    "TLE_LINE0": "0 HAIYANG 2D",
    "TLE_LINE1": "1 48621U 21043A   23263.22649003 -.00000004  00000-0  70451-4 0  9999",
    "TLE_LINE2": "2 48621  65.9959 276.7469 0007579 268.9391  91.0809 13.83374078118138",
    "OBJECT_ID": "2021-043A",
    "OBJECT_NUMBER": "48621",
    "SEMIMAJOR_AXIS": "7330.081",
    "PERIOD": "104.093",
    "APOGEE": "957.501",
    "PERIGEE": "946.390",
    "DECAYED": "0"
  },
  {
    "COMMENT": "GENERATED VIA SPACETRACK.ORG API",
    "ORIGINATOR": "18 SPCS",
    "NORAD_CAT_ID": "48621",
    "OBJECT_NAME": "HAIYANG 2D",
    "OBJECT_TYPE": "PAYLOAD",
    "CLASSIFICATION_TYPE": "U",
    "INTLDES": "21043A",
    "EPOCH": "2023-09-20 08:54:21",
    "EPOCH_MICROSECONDS": "274848",
    "MEAN_MOTION": "13.83374093",
    "ECCENTRICITY": "0.0007579",
    "INCLINATION": "65.9959",
    "RA_OF_ASC_NODE": "276.3869",
    "ARG_OF_PERICENTER": "268.9727",
    "MEAN_ANOMALY": "91.0473",
    "EPHEMERIS_TYPE": "0",
    "ELEMENT_SET_NO": "999",
    "REV_AT_EPOCH": "11815",
    "BSTAR": "0.000072472",
    "MEAN_MOTION_DOT": "-0.00000001",
    "MEAN_MOTION_DDOT": "0",
    "FILE": "4011690",
    "TLE_LINE0": "0 HAIYANG 2D",
    "TLE_LINE1": "1 48621U 21043A   23263.37107957 -.00000001  00000-0  72472-4 0  9994",
    "TLE_LINE2": "2 48621  65.9959 276.3869 0007579 268.9727  91.0473 13.83374093118157",
    "OBJECT_ID": "2021-043A",
    "OBJECT_NUMBER": "48621",
    "SEMIMAJOR_AXIS": "7330.081",
    "PERIOD": "104.093",
    "APOGEE": "957.501",
    "PERIGEE": "946.390",
    "DECAYED": "0"
  }
]